[{"OBJECT_NAME":"GRUS-1B","OBJECT_ID":"2021-022C","EPOCH":"2026-03-09T23:21:03.699936","MEAN_MOTION":14.98735678,"ECCENTRICITY":0.00144346,"INCLINATION":97.554,"RA_OF_ASC_NODE":315.3658,"ARG_OF_PERICENTER":300.5216,"MEAN_ANOMALY":59.4582,"EPHEMERIS_TYPE":0,"CLASSIFICATION_TYPE":"U","NORAD_CAT_ID":47934,"ELEMENT_SET_NO":999,"REV_AT_EPOCH":27103,"BSTAR":0.00025294791,"MEAN_MOTION_DOT":2.992e-5,"MEAN_MOTION_DDOT":0},{"OBJECT_NAME":"STARLINK-4333","OBJECT_ID":"2022-077AX","EPOCH":"2026-03-09T12:19:01.926336","MEAN_MOTION":15.01262655,"ECCENTRICITY":0.00021707,"INCLINATION":97.6023,"RA_OF_ASC_NODE":250.0502,"ARG_OF_PERICENTER":54.3924,"MEAN_ANOMALY":305.7503,"EPHEMERIS_TYPE":0,"CLASSIFICATION_TYPE":"U","NORAD_CAT_ID":53088,"ELEMENT_SET_NO":999,"REV_AT_EPOCH":20089,"BSTAR":4.5768666e-5,"MEAN_MOTION_DOT":5.3e-6,"MEAN_MOTION_DDOT":0}]
